{
  "type": "FeatureCollection",
  "features": [
    {
      "type": "Feature",
      "properties": {
        "norad_id": 28890,
        "name": "BEIJING 1",
        "group": "dmc",
        "lat": 63.143923540646036,
        "lon": 112.7515504137088,
        "alt_km": 666.632997294465,
        "timestamp": "2025-12-27T21:25:02.167075+00:00",
        "meta_object_name": "BEIJING 1",
        "meta_object_id": "2005-043A",
        "meta_epoch": "2025-12-27T12:55:10.362432",
        "meta_mean_motion": 14.6338054,
        "meta_eccentricity": 0.0015885,
        "meta_inclination": 98.2662,
        "meta_ra_of_asc_node": 129.0812,
        "meta_arg_of_pericenter": 97.8845,
        "meta_mean_anomaly": 262.4161,
        "meta_ephemeris_type": 0,
        "meta_classification_type": "U",
        "meta_norad_cat_id": 28890,
        "meta_element_set_no": 999,
        "meta_rev_at_epoch": 7554,
        "meta_bstar": 0.00014733,
        "meta_mean_motion_dot": 7.14e-06,
        "meta_mean_motion_ddot": 0,
        "tle_line1": "1 28890U 05043A   25361.53831438  .00000714  00000+0  14733-3 0  9993",
        "tle_line2": "2 28890  98.2662 129.0812 0015885  97.8845 262.4161 14.63380540 75540"
      },
      "geometry": {
        "type": "Point",
        "coordinates": [
          112.7515504137088,
          63.143923540646036
        ]
      }
    },
    {
      "type": "Feature",
      "properties": {
        "norad_id": 33320,
        "name": "HUANJING 1A (HJ-1A)",
        "group": "dmc",
        "lat": 74.76493060593903,
        "lon": -160.8454530970242,
        "alt_km": 617.4312549979832,
        "timestamp": "2025-12-27T21:25:02.167103+00:00",
        "meta_object_name": "HUANJING 1A (HJ-1A)",
        "meta_object_id": "2008-041A",
        "meta_epoch": "2025-12-27T12:51:36.740160",
        "meta_mean_motion": 14.83442965,
        "meta_eccentricity": 0.0018968,
        "meta_inclination": 97.6556,
        "meta_ra_of_asc_node": 349.2173,
        "meta_arg_of_pericenter": 347.0455,
        "meta_mean_anomaly": 13.027,
        "meta_ephemeris_type": 0,
        "meta_classification_type": "U",
        "meta_norad_cat_id": 33320,
        "meta_element_set_no": 999,
        "meta_rev_at_epoch": 93295,
        "meta_bstar": 0.00029296,
        "meta_mean_motion_dot": 2.362e-05,
        "meta_mean_motion_ddot": 0,
        "tle_line1": "1 33320U 08041A   25361.53584190  .00002362  00000+0  29296-3 0  9999",
        "tle_line2": "2 33320  97.6556 349.2173 0018968 347.0455  13.0270 14.83442965932957"
      },
      "geometry": {
        "type": "Point",
        "coordinates": [
          -160.8454530970242,
          74.76493060593903
        ]
      }
    },
    {
      "type": "Feature",
      "properties": {
        "norad_id": 33321,
        "name": "HUANJING 1B (HJ-1B)",
        "group": "dmc",
        "lat": -66.6082772344336,
        "lon": 11.297441978522121,
        "alt_km": 629.9376240940628,
        "timestamp": "2025-12-27T21:25:02.167118+00:00",
        "meta_object_name": "HUANJING 1B (HJ-1B)",
        "meta_object_id": "2008-041B",
        "meta_epoch": "2025-12-27T13:37:27.381792",
        "meta_mean_motion": 14.82861912,
        "meta_eccentricity": 0.0037632,
        "meta_inclination": 97.6414,
        "meta_ra_of_asc_node": 352.9057,
        "meta_arg_of_pericenter": 28.686,
        "meta_mean_anomaly": 331.6413,
        "meta_ephemeris_type": 0,
        "meta_classification_type": "U",
        "meta_norad_cat_id": 33321,
        "meta_element_set_no": 999,
        "meta_rev_at_epoch": 93297,
        "meta_bstar": 0.00019347,
        "meta_mean_motion_dot": 1.534e-05,
        "meta_mean_motion_ddot": 0,
        "tle_line1": "1 33321U 08041B   25361.56767803  .00001534  00000+0  19347-3 0  9993",
        "tle_line2": "2 33321  97.6414 352.9057 0037632  28.6860 331.6413 14.82861912932970"
      },
      "geometry": {
        "type": "Point",
        "coordinates": [
          11.297441978522121,
          -66.6082772344336
        ]
      }
    },
    {
      "type": "Feature",
      "properties": {
        "norad_id": 33446,
        "name": "YAOGAN-4",
        "group": "dmc",
        "lat": -17.001791004655356,
        "lon": 109.40477741440071,
        "alt_km": 622.9295365149928,
        "timestamp": "2025-12-27T21:25:02.167131+00:00",
        "meta_object_name": "YAOGAN-4",
        "meta_object_id": "2008-061A",
        "meta_epoch": "2025-12-27T09:11:33.320256",
        "meta_mean_motion": 14.82726039,
        "meta_eccentricity": 0.0012973,
        "meta_inclination": 97.9199,
        "meta_ra_of_asc_node": 291.3399,
        "meta_arg_of_pericenter": 271.2097,
        "meta_mean_anomaly": 88.763,
        "meta_ephemeris_type": 0,
        "meta_classification_type": "U",
        "meta_norad_cat_id": 33446,
        "meta_element_set_no": 999,
        "meta_rev_at_epoch": 92020,
        "meta_bstar": 0.00020996,
        "meta_mean_motion_dot": 1.643e-05,
        "meta_mean_motion_ddot": 0,
        "tle_line1": "1 33446U 08061A   25361.38302454  .00001643  00000+0  20996-3 0  9993",
        "tle_line2": "2 33446  97.9199 291.3399 0012973 271.2097  88.7630 14.82726039920209"
      },
      "geometry": {
        "type": "Point",
        "coordinates": [
          109.40477741440071,
          -17.001791004655356
        ]
      }
    },
    {
      "type": "Feature",
      "properties": {
        "norad_id": 35681,
        "name": "DEIMOS-1",
        "group": "dmc",
        "lat": -80.87680478354616,
        "lon": -75.80132662294984,
        "alt_km": 654.0334707048114,
        "timestamp": "2025-12-27T21:25:02.167143+00:00",
        "meta_object_name": "DEIMOS-1",
        "meta_object_id": "2009-041A",
        "meta_epoch": "2025-12-27T12:04:41.441088",
        "meta_mean_motion": 14.7497674,
        "meta_eccentricity": 0.0002367,
        "meta_inclination": 97.7159,
        "meta_ra_of_asc_node": 161.4202,
        "meta_arg_of_pericenter": 57.2685,
        "meta_mean_anomaly": 302.8753,
        "meta_ephemeris_type": 0,
        "meta_classification_type": "U",
        "meta_norad_cat_id": 35681,
        "meta_element_set_no": 999,
        "meta_rev_at_epoch": 88157,
        "meta_bstar": 0.00018419,
        "meta_mean_motion_dot": 1.191e-05,
        "meta_mean_motion_ddot": 0,
        "tle_line1": "1 35681U 09041A   25361.50325742  .00001191  00000+0  18419-3 0  9999",
        "tle_line2": "2 35681  97.7159 161.4202 0002367  57.2685 302.8753 14.74976740881576"
      },
      "geometry": {
        "type": "Point",
        "coordinates": [
          -75.80132662294984,
          -80.87680478354616
        ]
      }
    },
    {
      "type": "Feature",
      "properties": {
        "norad_id": 35683,
        "name": "UK-DMC 2",
        "group": "dmc",
        "lat": -42.531322358115276,
        "lon": 143.6459833838273,
        "alt_km": 650.4873114271868,
        "timestamp": "2025-12-27T21:25:02.167155+00:00",
        "meta_object_name": "UK-DMC 2",
        "meta_object_id": "2009-041C",
        "meta_epoch": "2025-12-27T13:28:30.078336",
        "meta_mean_motion": 14.75655884,
        "meta_eccentricity": 0.000161,
        "meta_inclination": 97.8572,
        "meta_ra_of_asc_node": 136.0468,
        "meta_arg_of_pericenter": 91.4725,
        "meta_mean_anomaly": 268.6669,
        "meta_ephemeris_type": 0,
        "meta_classification_type": "U",
        "meta_norad_cat_id": 35683,
        "meta_element_set_no": 999,
        "meta_rev_at_epoch": 88125,
        "meta_bstar": 0.00026403,
        "meta_mean_motion_dot": 1.754e-05,
        "meta_mean_motion_ddot": 0,
        "tle_line1": "1 35683U 09041C   25361.56145924  .00001754  00000+0  26403-3 0  9996",
        "tle_line2": "2 35683  97.8572 136.0468 0001610  91.4725 268.6669 14.75655884881259"
      },
      "geometry": {
        "type": "Point",
        "coordinates": [
          143.6459833838273,
          -42.531322358115276
        ]
      }
    },
    {
      "type": "Feature",
      "properties": {
        "norad_id": 40715,
        "name": "DMC3-FM1",
        "group": "dmc",
        "lat": -0.5263396828222182,
        "lon": 48.46107391481847,
        "alt_km": 614.5444026970408,
        "timestamp": "2025-12-27T21:25:02.167166+00:00",
        "meta_object_name": "DMC3-FM1",
        "meta_object_id": "2015-032A",
        "meta_epoch": "2025-12-27T12:31:26.371200",
        "meta_mean_motion": 14.85465338,
        "meta_eccentricity": 0.0004072,
        "meta_inclination": 97.6679,
        "meta_ra_of_asc_node": 228.1751,
        "meta_arg_of_pericenter": 257.7701,
        "meta_mean_anomaly": 102.3059,
        "meta_ephemeris_type": 0,
        "meta_classification_type": "U",
        "meta_norad_cat_id": 40715,
        "meta_element_set_no": 999,
        "meta_rev_at_epoch": 56442,
        "meta_bstar": 0.00012187,
        "meta_mean_motion_dot": 1e-05,
        "meta_mean_motion_ddot": 0,
        "tle_line1": "1 40715U 15032A   25361.52183300  .00001000  00000+0  12187-3 0  9999",
        "tle_line2": "2 40715  97.6679 228.1751 0004072 257.7701 102.3059 14.85465338564429"
      },
      "geometry": {
        "type": "Point",
        "coordinates": [
          48.46107391481847,
          -0.5263396828222182
        ]
      }
    },
    {
      "type": "Feature",
      "properties": {
        "norad_id": 40716,
        "name": "DMC3-FM2",
        "group": "dmc",
        "lat": 59.41539352977431,
        "lon": -143.19998874623718,
        "alt_km": 609.2453062812247,
        "timestamp": "2025-12-27T21:25:02.167177+00:00",
        "meta_object_name": "DMC3-FM2",
        "meta_object_id": "2015-032B",
        "meta_epoch": "2025-12-27T13:03:48.239712",
        "meta_mean_motion": 14.85469866,
        "meta_eccentricity": 0.0004499,
        "meta_inclination": 97.6738,
        "meta_ra_of_asc_node": 229.6513,
        "meta_arg_of_pericenter": 265.5308,
        "meta_mean_anomaly": 94.5393,
        "meta_ephemeris_type": 0,
        "meta_classification_type": "U",
        "meta_norad_cat_id": 40716,
        "meta_element_set_no": 999,
        "meta_rev_at_epoch": 56442,
        "meta_bstar": 0.00016803,
        "meta_mean_motion_dot": 1.398e-05,
        "meta_mean_motion_ddot": 0,
        "tle_line1": "1 40716U 15032B   25361.54430833  .00001398  00000+0  16803-3 0  9997",
        "tle_line2": "2 40716  97.6738 229.6513 0004499 265.5308  94.5393 14.85469866564424"
      },
      "geometry": {
        "type": "Point",
        "coordinates": [
          -143.19998874623718,
          59.41539352977431
        ]
      }
    },
    {
      "type": "Feature",
      "properties": {
        "norad_id": 40717,
        "name": "DMC3-FM3",
        "group": "dmc",
        "lat": -55.260551562599666,
        "lon": -117.1502954284277,
        "alt_km": 617.0955177000951,
        "timestamp": "2025-12-27T21:25:02.167189+00:00",
        "meta_object_name": "DMC3-FM3",
        "meta_object_id": "2015-032C",
        "meta_epoch": "2025-12-27T13:35:08.271744",
        "meta_mean_motion": 14.85450576,
        "meta_eccentricity": 0.0003897,
        "meta_inclination": 97.6792,
        "meta_ra_of_asc_node": 231.3152,
        "meta_arg_of_pericenter": 266.8038,
        "meta_mean_anomaly": 93.2732,
        "meta_ephemeris_type": 0,
        "meta_classification_type": "U",
        "meta_norad_cat_id": 40717,
        "meta_element_set_no": 999,
        "meta_rev_at_epoch": 56443,
        "meta_bstar": 3.1639e-05,
        "meta_mean_motion_dot": 2.21e-06,
        "meta_mean_motion_ddot": 0,
        "tle_line1": "1 40717U 15032C   25361.56606796  .00000221  00000+0  31639-4 0  9992",
        "tle_line2": "2 40717  97.6792 231.3152 0003897 266.8038  93.2732 14.85450576564431"
      },
      "geometry": {
        "type": "Point",
        "coordinates": [
          -117.1502954284277,
          -55.260551562599666
        ]
      }
    }
  ]
}